CCSDS_OMM_VERS = 2.0
CREATION_DATE  = 
ORIGINATOR     = 

OBJECT_NAME    = DELTA 2 R/B(1)
OBJECT_ID      = 1990-008B
CENTER_NAME    = EARTH
REF_FRAME      = TEME
TIME_SYSTEM    = UTC
MEAN_ELEMENT_THEORY = SGP/SGP4

EPOCH          = 2026-01-03T18:27:08.341920
MEAN_MOTION    = 15.47463431
ECCENTRICITY   = .01054517
INCLINATION    = 35.6045
RA_OF_ASC_NODE = 238.0691
ARG_OF_PERICENTER = 18.3072
MEAN_ANOMALY   = 342.1416

EPHEMERIS_TYPE = 0
CLASSIFICATION_TYPE = U
NORAD_CAT_ID   = 20453
ELEMENT_SET_NO = 999
REV_AT_EPOCH   = 91604
BSTAR          = .95543857E-3
MEAN_MOTION_DOT = .63567E-3
MEAN_MOTION_DDOT = 0

CCSDS_OMM_VERS = 2.0
CREATION_DATE  = 
ORIGINATOR     = 

OBJECT_NAME    = COSMOS 2058
OBJECT_ID      = 1990-010A
CENTER_NAME    = EARTH
REF_FRAME      = TEME
TIME_SYSTEM    = UTC
MEAN_ELEMENT_THEORY = SGP/SGP4

EPOCH          = 2026-01-03T18:00:08.307360
MEAN_MOTION    = 15.10723953
ECCENTRICITY   = .00100065
INCLINATION    = 82.4723
RA_OF_ASC_NODE = 111.3823
ARG_OF_PERICENTER = 193.9288
MEAN_ANOMALY   = 166.1667

EPHEMERIS_TYPE = 0
CLASSIFICATION_TYPE = U
NORAD_CAT_ID   = 20465
ELEMENT_SET_NO = 999
REV_AT_EPOCH   = 93243
BSTAR          = .4233263E-3
MEAN_MOTION_DOT = .705E-4
MEAN_MOTION_DDOT = 0

CCSDS_OMM_VERS = 2.0
CREATION_DATE  = 
ORIGINATOR     = 

OBJECT_NAME    = SL-14 R/B
OBJECT_ID      = 1990-010B
CENTER_NAME    = EARTH
REF_FRAME      = TEME
TIME_SYSTEM    = UTC
MEAN_ELEMENT_THEORY = SGP/SGP4

EPOCH          = 2026-01-03T22:28:53.721696
MEAN_MOTION    = 14.83497940
ECCENTRICITY   = .00205464
INCLINATION    = 82.5034
RA_OF_ASC_NODE = 328.1999
ARG_OF_PERICENTER = 149.3578
MEAN_ANOMALY   = 210.8842

EPHEMERIS_TYPE = 0
CLASSIFICATION_TYPE = U
NORAD_CAT_ID   = 20466
ELEMENT_SET_NO = 999
REV_AT_EPOCH   = 91888
BSTAR          = .96380319E-4
MEAN_MOTION_DOT = .819E-5
MEAN_MOTION_DDOT = 0

CCSDS_OMM_VERS = 2.0
CREATION_DATE  = 
ORIGINATOR     = 

OBJECT_NAME    = SL-14 R/B
OBJECT_ID      = 1990-018B
CENTER_NAME    = EARTH
REF_FRAME      = TEME
TIME_SYSTEM    = UTC
MEAN_ELEMENT_THEORY = SGP/SGP4

EPOCH          = 2026-01-03T19:47:31.157952
MEAN_MOTION    = 14.82075220
ECCENTRICITY   = .00152346
INCLINATION    = 82.5222
RA_OF_ASC_NODE = 283.7248
ARG_OF_PERICENTER = 309.2041
MEAN_ANOMALY   = 50.7820

EPHEMERIS_TYPE = 0
CLASSIFICATION_TYPE = U
NORAD_CAT_ID   = 20511
ELEMENT_SET_NO = 999
REV_AT_EPOCH   = 91297
BSTAR          = .10454052E-3
MEAN_MOTION_DOT = .855E-5
MEAN_MOTION_DDOT = 0

CCSDS_OMM_VERS = 2.0
CREATION_DATE  = 
ORIGINATOR     = 

OBJECT_NAME    = HST
OBJECT_ID      = 1990-037B
CENTER_NAME    = EARTH
REF_FRAME      = TEME
TIME_SYSTEM    = UTC
MEAN_ELEMENT_THEORY = SGP/SGP4

EPOCH          = 2026-01-03T16:03:44.986752
MEAN_MOTION    = 15.28377682
ECCENTRICITY   = .000256
INCLINATION    = 28.4665
RA_OF_ASC_NODE = 123.1848
ARG_OF_PERICENTER = 109.8207
MEAN_ANOMALY   = 250.2664

EPHEMERIS_TYPE = 0
CLASSIFICATION_TYPE = U
NORAD_CAT_ID   = 20580
ELEMENT_SET_NO = 999
REV_AT_EPOCH   = 76335
BSTAR          = .36345057E-3
MEAN_MOTION_DOT = .1057E-3
MEAN_MOTION_DDOT = 0

CCSDS_OMM_VERS = 2.0
CREATION_DATE  = 
ORIGINATOR     = 

OBJECT_NAME    = SL-16 R/B
OBJECT_ID      = 1990-046B
CENTER_NAME    = EARTH
REF_FRAME      = TEME
TIME_SYSTEM    = UTC
MEAN_ELEMENT_THEORY = SGP/SGP4

EPOCH          = 2026-01-03T14:09:26.564256
MEAN_MOTION    = 14.15000582
ECCENTRICITY   = .00127469
INCLINATION    = 70.9995
RA_OF_ASC_NODE = 74.6350
ARG_OF_PERICENTER = 36.2309
MEAN_ANOMALY   = 323.9675

EPHEMERIS_TYPE = 0
CLASSIFICATION_TYPE = U
NORAD_CAT_ID   = 20625
ELEMENT_SET_NO = 999
REV_AT_EPOCH   = 83918
BSTAR          = .2022909E-3
MEAN_MOTION_DOT = .344E-5
MEAN_MOTION_DDOT = 0

CCSDS_OMM_VERS = 2.0
CREATION_DATE  = 
ORIGINATOR     = 

OBJECT_NAME    = COSMOS 2084
OBJECT_ID      = 1990-055A
CENTER_NAME    = EARTH
REF_FRAME      = TEME
TIME_SYSTEM    = UTC
MEAN_ELEMENT_THEORY = SGP/SGP4

EPOCH          = 2026-01-03T22:59:38.142240
MEAN_MOTION    = 15.05180500
ECCENTRICITY   = .00279604
INCLINATION    = 62.7886
RA_OF_ASC_NODE = 196.2789
ARG_OF_PERICENTER = 177.9273
MEAN_ANOMALY   = 182.1948

EPHEMERIS_TYPE = 0
CLASSIFICATION_TYPE = U
NORAD_CAT_ID   = 20663
ELEMENT_SET_NO = 999
REV_AT_EPOCH   = 92657
BSTAR          = .37658524E-3
MEAN_MOTION_DOT = .5241E-4
MEAN_MOTION_DDOT = 0

CCSDS_OMM_VERS = 2.0
CREATION_DATE  = 
ORIGINATOR     = 

OBJECT_NAME    = SL-6 R/B(2)
OBJECT_ID      = 1990-055D
CENTER_NAME    = EARTH
REF_FRAME      = TEME
TIME_SYSTEM    = UTC
MEAN_ELEMENT_THEORY = SGP/SGP4

EPOCH          = 2026-01-03T17:18:00.874080
MEAN_MOTION    = 15.03209935
ECCENTRICITY   = .00154243
INCLINATION    = 62.7841
RA_OF_ASC_NODE = 114.7210
ARG_OF_PERICENTER = 323.1371
MEAN_ANOMALY   = 36.8667

EPHEMERIS_TYPE = 0
CLASSIFICATION_TYPE = U
NORAD_CAT_ID   = 20666
ELEMENT_SET_NO = 999
REV_AT_EPOCH   = 92842
BSTAR          = .32845609E-3
MEAN_MOTION_DOT = .4281E-4
MEAN_MOTION_DDOT = 0

CCSDS_OMM_VERS = 2.0
CREATION_DATE  = 
ORIGINATOR     = 

OBJECT_NAME    = SL-8 R/B
OBJECT_ID      = 1990-078B
CENTER_NAME    = EARTH
REF_FRAME      = TEME
TIME_SYSTEM    = UTC
MEAN_ELEMENT_THEORY = SGP/SGP4

EPOCH          = 2026-01-03T22:43:58.540512
MEAN_MOTION    = 14.86751764
ECCENTRICITY   = .03692409
INCLINATION    = 82.9068
RA_OF_ASC_NODE = 309.4207
ARG_OF_PERICENTER = 231.0926
MEAN_ANOMALY   = 125.6835

EPHEMERIS_TYPE = 0
CLASSIFICATION_TYPE = U
NORAD_CAT_ID   = 20775
ELEMENT_SET_NO = 999
REV_AT_EPOCH   = 79967
BSTAR          = .5755838E-3
MEAN_MOTION_DOT = .18798E-3
MEAN_MOTION_DDOT = 0

CCSDS_OMM_VERS = 2.0
CREATION_DATE  = 
ORIGINATOR     = 

OBJECT_NAME    = SL-8 R/B
OBJECT_ID      = 1991-006B
CENTER_NAME    = EARTH
REF_FRAME      = TEME
TIME_SYSTEM    = UTC
MEAN_ELEMENT_THEORY = SGP/SGP4

EPOCH          = 2026-01-03T23:42:56.520288
MEAN_MOTION    = 13.77492923
ECCENTRICITY   = .00216918
INCLINATION    = 82.9410
RA_OF_ASC_NODE = 218.1633
ARG_OF_PERICENTER = 214.1634
MEAN_ANOMALY   = 258.9896

EPHEMERIS_TYPE = 0
CLASSIFICATION_TYPE = U
NORAD_CAT_ID   = 21088
ELEMENT_SET_NO = 999
REV_AT_EPOCH   = 75516
BSTAR          = .34003746E-4
MEAN_MOTION_DOT = .49E-6
MEAN_MOTION_DDOT = 0

CCSDS_OMM_VERS = 2.0
CREATION_DATE  = 
ORIGINATOR     = 

OBJECT_NAME    = OKEAN-3
OBJECT_ID      = 1991-039A
CENTER_NAME    = EARTH
REF_FRAME      = TEME
TIME_SYSTEM    = UTC
MEAN_ELEMENT_THEORY = SGP/SGP4

EPOCH          = 2026-01-03T13:38:12.158592
MEAN_MOTION    = 15.04279375
ECCENTRICITY   = .00140715
INCLINATION    = 82.5152
RA_OF_ASC_NODE = 39.9149
ARG_OF_PERICENTER = 185.9660
MEAN_ANOMALY   = 174.1401

EPHEMERIS_TYPE = 0
CLASSIFICATION_TYPE = U
NORAD_CAT_ID   = 21397
ELEMENT_SET_NO = 999
REV_AT_EPOCH   = 85524
BSTAR          = .40109461E-3
MEAN_MOTION_DOT = .562E-4
MEAN_MOTION_DDOT = 0

CCSDS_OMM_VERS = 2.0
CREATION_DATE  = 
ORIGINATOR     = 

OBJECT_NAME    = COSMOS 2151
OBJECT_ID      = 1991-042A
CENTER_NAME    = EARTH
REF_FRAME      = TEME
TIME_SYSTEM    = UTC
MEAN_ELEMENT_THEORY = SGP/SGP4

EPOCH          = 2026-01-03T21:47:11.531904
MEAN_MOTION    = 14.99798374
ECCENTRICITY   = .00111235
INCLINATION    = 82.4972
RA_OF_ASC_NODE = 146.1396
ARG_OF_PERICENTER = 279.4142
MEAN_ANOMALY   = 80.5824

EPHEMERIS_TYPE = 0
CLASSIFICATION_TYPE = U
NORAD_CAT_ID   = 21422
ELEMENT_SET_NO = 999
REV_AT_EPOCH   = 85348
BSTAR          = .25745972E-3
MEAN_MOTION_DOT = .3213E-4
MEAN_MOTION_DDOT = 0

