DELTA 2 R/B(1)          
1 20453U 90008B   26003.76884655  .00063567  00000+0  95544-3 0  9997
2 20453  35.6045 238.0691 0105451  18.3072 342.1416 15.47463431916044
COSMOS 2058             
1 20465U 90010A   26003.75009615  .00007050  00000+0  42333-3 0  9990
2 20465  82.4723 111.3823 0010006 193.9288 166.1667 15.10723953932431
SL-14 R/B               
1 20466U 90010B   26003.93673289  .00000819  00000+0  96380-4 0  9993
2 20466  82.5034 328.1999 0020546 149.3578 210.8842 14.83497940918885
SL-14 R/B               
1 20511U 90018B   26003.82466618  .00000855  00000+0  10454-3 0  9993
2 20511  82.5222 283.7248 0015234 309.2041  50.7820 14.82075220912971
HST                     
1 20580U 90037B   26003.66927068  .00010570  00000+0  36345-3 0  9995
2 20580  28.4665 123.1848 0002560 109.8207 250.2664 15.28377682763353
SL-16 R/B               
1 20625U 90046B   26003.58989079  .00000344  00000+0  20229-3 0  9998
2 20625  70.9995  74.6350 0012746  36.2309 323.9675 14.15000582839184
COSMOS 2084             
1 20663U 90055A   26003.95808035  .00005241  00000+0  37659-3 0  9999
2 20663  62.7886 196.2789 0027960 177.9273 182.1948 15.05180500926575
SL-6 R/B(2)             
1 20666U 90055D   26003.72084345  .00004281  00000+0  32846-3 0  9993
2 20666  62.7841 114.7210 0015424 323.1371  36.8667 15.03209935928420
SL-8 R/B                
1 20775U 90078B   26003.94720533  .00018798  00000+0  57558-3 0  9994
2 20775  82.9068 309.4207 0369240 231.0926 125.6835 14.86751764799675
SL-8 R/B                
1 21088U 91006B   26003.98815417  .00000049  00000+0  34004-4 0  9996
2 21088  82.9410 218.1633 0021691 214.1634 258.9896 13.77492923755167
OKEAN-3                 
1 21397U 91039A   26003.56819628  .00005620  00000+0  40109-3 0  9999
2 21397  82.5152  39.9149 0014071 185.9660 174.1401 15.04279375855245
COSMOS 2151             
1 21422U 91042A   26003.90777236  .00003213  00000+0  25746-3 0  9994
2 21422  82.4972 146.1396 0011123 279.4142  80.5824 14.99798374853488
